HAWK-A                  
1 43765U 18099H   26187.11733698  .00007423  00000+0  29660-3 0  9995
2 43765  97.3899 239.1079 0033800 216.3237 143.5707 15.24885619415984
HAWK-B                  
1 43794U 18099AN  26187.09583279  .00007307  00000+0  30932-3 0  9997
2 43794  97.3947 238.4620 0030613 234.9860 124.8503 15.23045429415916
HAWK-C                  
1 43799U 18099AT  26187.11627861  .00009221  00000+0  32860-3 0  9990
2 43799  97.3876 240.1128 0039427 216.2801 143.5764 15.28393505416807
HAWK-2A                 
1 47505U 21006CW  26187.12736400  .00007034  00000+0  20980-3 0  9992
2 47505  97.2307 231.7496 0007864 129.9039 230.2897 15.34924046302409
HAWK-2B                 
1 47508U 21006CZ  26187.12163351  .00008238  00000+0  24429-3 0  9993
2 47508  97.2178 230.0457 0008446 128.4869 231.7134 15.35046266302409
HAWK-3B                 
1 48931U 21059BE  26187.12228308  .00046281  00000+0  36589-3 0  9996
2 48931  97.6647  25.6428 0003696 234.7676 125.3240 15.71239471280829
HAWK-3C                 
1 48948U 21059BX  26187.12197257  .00047559  00000+0  37595-3 0  9999
2 48948  97.6768  31.3608 0003952 236.5008 123.5876 15.71235537280823
HAWK-3A                 
1 48957U 21059CG  26187.12185735  .00046539  00000+0  36797-3 0  9997
2 48957  97.6711  28.5502 0003878 239.3503 120.7377 15.71234940280822
HAWK-6B                 
1 55324U 23011A   26187.19914639  .00004315  00000+0  18718-3 0  9992
2 55324  40.4971 241.1695 0002785 190.4907 169.5845 15.23102486190747
HAWK-6A                 
1 55327U 23011D   26186.87071601  .00005212  00000+0  22439-3 0  9994
2 55327  40.4968 241.5485 0002638 171.7318 188.3536 15.23100588190705
