{"fetched_at":"2026-07-06T18:35:36.523Z","source":"https://celestrak.org/NORAD/elements/gp.php?NAME=HAWK&FORMAT=JSON","constellation":"hawkeye-360","records":[{"OBJECT_NAME":"HAWK-A","OBJECT_ID":"2018-099H","EPOCH":"2026-07-06T02:48:57.915936","CLASSIFICATION_TYPE":"U","MEAN_MOTION":15.24885619,"ECCENTRICITY":0.00338001,"INCLINATION":97.3899,"RA_OF_ASC_NODE":239.1079,"ARG_OF_PERICENTER":216.3237,"MEAN_ANOMALY":143.5707,"EPHEMERIS_TYPE":0,"NORAD_CAT_ID":43765,"ELEMENT_SET_NO":999,"REV_AT_EPOCH":41598,"BSTAR":0.0002965996,"MEAN_MOTION_DOT":0.00007423,"MEAN_MOTION_DDOT":0},{"OBJECT_NAME":"HAWK-B","OBJECT_ID":"2018-099AN","EPOCH":"2026-07-06T02:17:59.953056","CLASSIFICATION_TYPE":"U","MEAN_MOTION":15.23045429,"ECCENTRICITY":0.00306134,"INCLINATION":97.3947,"RA_OF_ASC_NODE":238.462,"ARG_OF_PERICENTER":234.986,"MEAN_ANOMALY":124.8503,"EPHEMERIS_TYPE":0,"NORAD_CAT_ID":43794,"ELEMENT_SET_NO":999,"REV_AT_EPOCH":41591,"BSTAR":0.00030931686,"MEAN_MOTION_DOT":0.00007307,"MEAN_MOTION_DDOT":0},{"OBJECT_NAME":"HAWK-C","OBJECT_ID":"2018-099AT","EPOCH":"2026-07-06T02:47:26.472768","CLASSIFICATION_TYPE":"U","MEAN_MOTION":15.28393505,"ECCENTRICITY":0.00394274,"INCLINATION":97.3876,"RA_OF_ASC_NODE":240.1128,"ARG_OF_PERICENTER":216.2801,"MEAN_ANOMALY":143.5764,"EPHEMERIS_TYPE":0,"NORAD_CAT_ID":43799,"ELEMENT_SET_NO":999,"REV_AT_EPOCH":41680,"BSTAR":0.00032860353,"MEAN_MOTION_DOT":0.00009221,"MEAN_MOTION_DDOT":0},{"OBJECT_NAME":"HAWK-2A","OBJECT_ID":"2021-006CW","EPOCH":"2026-07-06T03:03:24.250464","CLASSIFICATION_TYPE":"U","MEAN_MOTION":15.34924046,"ECCENTRICITY":0.00078641,"INCLINATION":97.2307,"RA_OF_ASC_NODE":231.7496,"ARG_OF_PERICENTER":129.9039,"MEAN_ANOMALY":230.2897,"EPHEMERIS_TYPE":0,"NORAD_CAT_ID":47505,"ELEMENT_SET_NO":999,"REV_AT_EPOCH":30240,"BSTAR":0.00020980118,"MEAN_MOTION_DOT":0.00007034,"MEAN_MOTION_DDOT":0},{"OBJECT_NAME":"HAWK-2B","OBJECT_ID":"2021-006CZ","EPOCH":"2026-07-06T02:55:09.135264","CLASSIFICATION_TYPE":"U","MEAN_MOTION":15.35046266,"ECCENTRICITY":0.00084458,"INCLINATION":97.2178,"RA_OF_ASC_NODE":230.0457,"ARG_OF_PERICENTER":128.4869,"MEAN_ANOMALY":231.7134,"EPHEMERIS_TYPE":0,"NORAD_CAT_ID":47508,"ELEMENT_SET_NO":999,"REV_AT_EPOCH":30240,"BSTAR":0.00024428787,"MEAN_MOTION_DOT":0.00008238,"MEAN_MOTION_DDOT":0},{"OBJECT_NAME":"HAWK-3B","OBJECT_ID":"2021-059BE","EPOCH":"2026-07-06T02:56:05.258112","CLASSIFICATION_TYPE":"U","MEAN_MOTION":15.71239471,"ECCENTRICITY":0.00036957,"INCLINATION":97.6647,"RA_OF_ASC_NODE":25.6428,"ARG_OF_PERICENTER":234.7676,"MEAN_ANOMALY":125.324,"EPHEMERIS_TYPE":0,"NORAD_CAT_ID":48931,"ELEMENT_SET_NO":999,"REV_AT_EPOCH":28082,"BSTAR":0.00036589227,"MEAN_MOTION_DOT":0.00046281,"MEAN_MOTION_DDOT":0},{"OBJECT_NAME":"HAWK-3C","OBJECT_ID":"2021-059BX","EPOCH":"2026-07-06T02:55:38.430912","CLASSIFICATION_TYPE":"U","MEAN_MOTION":15.71235537,"ECCENTRICITY":0.00039523,"INCLINATION":97.6768,"RA_OF_ASC_NODE":31.3608,"ARG_OF_PERICENTER":236.5008,"MEAN_ANOMALY":123.5876,"EPHEMERIS_TYPE":0,"NORAD_CAT_ID":48948,"ELEMENT_SET_NO":999,"REV_AT_EPOCH":28082,"BSTAR":0.00037595448,"MEAN_MOTION_DOT":0.00047559,"MEAN_MOTION_DDOT":0},{"OBJECT_NAME":"HAWK-3A","OBJECT_ID":"2021-059CG","EPOCH":"2026-07-06T02:55:28.475040","CLASSIFICATION_TYPE":"U","MEAN_MOTION":15.7123494,"ECCENTRICITY":0.00038779,"INCLINATION":97.6711,"RA_OF_ASC_NODE":28.5502,"ARG_OF_PERICENTER":239.3503,"MEAN_ANOMALY":120.7377,"EPHEMERIS_TYPE":0,"NORAD_CAT_ID":48957,"ELEMENT_SET_NO":999,"REV_AT_EPOCH":28082,"BSTAR":0.00036797085,"MEAN_MOTION_DOT":0.00046539,"MEAN_MOTION_DDOT":0},{"OBJECT_NAME":"HAWK-6B","OBJECT_ID":"2023-011A","EPOCH":"2026-07-06T04:46:46.248096","CLASSIFICATION_TYPE":"U","MEAN_MOTION":15.23102486,"ECCENTRICITY":0.00027859,"INCLINATION":40.4971,"RA_OF_ASC_NODE":241.1695,"ARG_OF_PERICENTER":190.4907,"MEAN_ANOMALY":169.5845,"EPHEMERIS_TYPE":0,"NORAD_CAT_ID":55324,"ELEMENT_SET_NO":999,"REV_AT_EPOCH":19074,"BSTAR":0.00018717555,"MEAN_MOTION_DOT":0.00004315,"MEAN_MOTION_DDOT":0},{"OBJECT_NAME":"HAWK-6A","OBJECT_ID":"2023-011D","EPOCH":"2026-07-05T20:53:49.863264","CLASSIFICATION_TYPE":"U","MEAN_MOTION":15.23100588,"ECCENTRICITY":0.00026376,"INCLINATION":40.4968,"RA_OF_ASC_NODE":241.5485,"ARG_OF_PERICENTER":171.7318,"MEAN_ANOMALY":188.3536,"EPHEMERIS_TYPE":0,"NORAD_CAT_ID":55327,"ELEMENT_SET_NO":999,"REV_AT_EPOCH":19070,"BSTAR":0.00022439159,"MEAN_MOTION_DOT":0.00005212,"MEAN_MOTION_DDOT":0}]}
